NORAD_CAT_ID,OBJECT_NAME,OBJECT_TYPE,EPOCH,MEAN_MOTION,ECCENTRICITY,INCLINATION,RA_OF_ASC_NODE,ARG_OF_PERICENTER,MEAN_ANOMALY,BSTAR,MEAN_MOTION_DOT,MEAN_MOTION_DDOT,TLE_LINE0,TLE_LINE1,TLE_LINE2,SEMIMAJOR_AXIS,PERIOD,APOGEE,PERIGEE,DECAYED
53018.0,STARLINK-4279,PAYLOAD,2022-08-15 16:00:00,15.73151043,0.0001928,53.2166,185.9815,31.7823,86.5316,0.00025858,0.00035749,0.0,0 STARLINK-4279,1 53018U 22076AJ  22227.66667824  .00035749  00000-0  25858-3 0  9993,2 53018  53.2166 185.9815 0001928  31.7823  86.5316 15.73151043  6659,6728.035,91.536,351.19699999999995,348.603,0.0
53018.0,STARLINK-4279,PAYLOAD,2022-08-15 22:00:00,15.73176451,0.0001936,53.2169,184.7442,35.9818,58.9879,0.00032521,0.00045222,0.0,0 STARLINK-4279,1 53018U 22076AJ  22227.91667824  .00045222  00000-0  32521-3 0  9993,2 53018  53.2169 184.7442 0001936  35.9818  58.9879 15.73176451  1308,6727.962,91.535,351.13,348.525,0.0
53018.0,STARLINK-4279,PAYLOAD,2022-08-16 14:00:01,15.7325559,0.0001949,53.2168,181.446,29.3972,243.439,-0.00063723,-0.00089327,0.0,0 STARLINK-4279,1 53018U 22076AJ  22228.58334491 -.00089327  00000-0 -63723-3 0  9992,2 53018  53.2168 181.4460 0001949  29.3972 243.4390 15.73255590  1304,6727.736999999999,91.53,350.913,348.29,0.0
53018.0,STARLINK-4279,PAYLOAD,2022-08-16 22:00:00,15.73237087,0.0001789,53.2167,179.7962,27.5931,334.1897,-0.00024597,-0.00035054,0.0,0 STARLINK-4279,1 53018U 22076AJ  22228.91667824 -.00035054  00000-0 -24597-3 0  9992,2 53018  53.2167 179.7962 0001789  27.5931 334.1897 15.73237087  6853,6727.7890000000025,91.531,350.858,348.451,0.0
53018.0,STARLINK-4279,PAYLOAD,2022-08-17 14:00:01,15.73142285,0.0001998,53.2169,176.4851,22.2265,157.4679,-0.00011326,-0.00016447,0.0,0 STARLINK-4279,1 53018U 22076AJ  22229.58334491 -.00016447  00000-0 -11326-3 0  9998,2 53018  53.2169 176.4851 0001998  22.2265 157.4679 15.73142285  1304,6728.06,91.537,351.269,348.58,0.0
53018.0,STARLINK-4279,PAYLOAD,2022-08-18 08:00:01,15.73234198,0.0002103,53.216,172.7877,30.5836,79.233,-4.2037e-05,-6.526e-05,0.0,0 STARLINK-4279,1 53018U 22076AJ  22230.33334491 -.00006526  00000-0 -42037-4 0  9994,2 53018  53.2160 172.7877 0002103  30.5836  79.2330 15.73234198  7077,6727.7980000000025,91.531,351.07800000000015,348.24800000000016,0.0
53018.0,STARLINK-4279,PAYLOAD,2022-08-18 14:00:01,15.73210162,0.000192,53.2161,171.5489,34.9011,51.6631,0.00018135,0.00024918,0.0,0 STARLINK-4279,1 53018U 22076AJ  22230.58334491  .00024918  00000-0  18135-3 0  9995,2 53018  53.2161 171.5489 0001920  34.9011  51.6631 15.73210162  1306,6727.866,91.533,351.023,348.439,0.0
53018.0,STARLINK-4279,PAYLOAD,2022-08-18 22:00:00,15.73263921,0.0001861,53.216,169.8994,36.9506,138.5573,-0.00054322,-0.00076383,0.0,0 STARLINK-4279,1 53018U 22076AJ  22230.91667824 -.00076383  00000-0 -54322-3 0  9994,2 53018  53.2160 169.8994 0001861  36.9506 138.5573 15.73263921  1302,6727.7130000000025,91.529,350.83,348.326,0.0
53018.0,STARLINK-4279,PAYLOAD,2022-08-19 14:00:01,15.73137157,0.0001721999999999,53.2153,166.6002,33.0391,320.3802,0.00018302,0.00025074,0.0,0 STARLINK-4279,1 53018U 22076AJ  22231.58334491  .00025074  00000-0  18302-3 0  9996,2 53018  53.2153 166.6002 0001722  33.0391 320.3802 15.73137157  1302,6728.074000000001,91.537,351.098,348.781,0.0
53018.0,STARLINK-4279,PAYLOAD,2022-08-19 16:00:00,15.73106229,0.000167,53.2152,166.1875,33.5909,72.0539,0.00072807,0.00102402,0.0,0 STARLINK-4279,1 53018U 22076AJ  22231.66667824  .00102402  00000-0  72807-3 0  9995,2 53018  53.2152 166.1875 0001670  33.5909  72.0539 15.73106229  7283,6728.163000000001,91.539,351.151,348.904,0.0
53018.0,STARLINK-4279,PAYLOAD,2022-08-19 20:00:01,15.73144254,0.0001712,53.2155,165.3628,36.9531,293.0979,0.00048891,0.00068393,0.0,0 STARLINK-4279,1 53018U 22076AJ  22231.83334491  .00068393  00000-0  48891-3 0  9991,2 53018  53.2155 165.3628 0001712  36.9531 293.0979 15.73144254  1308,6728.054,91.536,351.071,348.767,0.0
53018.0,STARLINK-4279,PAYLOAD,2022-08-20 08:00:01,15.73135413,0.0001874,53.2154,162.8907,25.2517,258.1128,0.00022271,0.00030664,0.0,0 STARLINK-4279,1 53018U 22076AJ  22232.33334491  .00030664  00000-0  22271-3 0  9991,2 53018  53.2154 162.8907 0001874  25.2517 258.1128 15.73135413  7393,6728.079000000002,91.537,351.205,348.68300000000005,0.0
53018.0,STARLINK-4279,PAYLOAD,2022-08-20 14:00:01,15.7314626,0.0001676999999999,53.2157,161.6521,27.6695,232.3577,0.00043364,0.00060539,0.0,0 STARLINK-4279,1 53018U 22076AJ  22232.58334491  .00060539  00000-0  43364-3 0  9998,2 53018  53.2157 161.6521 0001677  27.6695 232.3577 15.73146260  1308,6728.0480000000025,91.536,351.042,348.785,0.0
53018.0,STARLINK-4279,PAYLOAD,2022-08-20 22:00:00,15.73199532,0.0001721999999999,53.2156,160.003,30.5307,318.3697,2.6558e-05,3.108e-05,0.0,0 STARLINK-4279,1 53018U 22076AJ  22232.91667824  .00003108  00000-0  26558-4 0  9990,2 53018  53.2156 160.0030 0001722  30.5307 318.3697 15.73199532  1307,6727.897,91.533,350.92,348.603,0.0
53018.0,STARLINK-4279,PAYLOAD,2022-08-21 14:00:01,15.73150595,0.0001792,53.2151,156.7036,37.9828,128.8003,0.00043149,0.00060245,0.0,0 STARLINK-4279,1 53018U 22076AJ  22233.58334491  .00060245  00000-0  43149-3 0  9994,2 53018  53.2151 156.7036 0001792  37.9828 128.8003 15.73150595  7583,6728.036,91.536,351.107,348.695,0.0
53018.0,STARLINK-4279,PAYLOAD,2022-08-21 22:00:00,15.73216768,0.0001827,53.2154,155.0547,40.7946,214.8862,0.00011386,0.000154,0.0,0 STARLINK-4279,1 53018U 22076AJ  22233.91667824  .00015400  00000-0  11386-3 0  9991,2 53018  53.2154 155.0547 0001827  40.7946 214.8862 15.73216768  1305,6727.847,91.532,350.94199999999995,348.483,0.0
53018.0,STARLINK-4279,PAYLOAD,2022-08-22 12:00:00,15.73247854,0.0001759,53.2158,152.1679,35.2043,286.1267,-0.00051705,-0.00072713,0.0,0 STARLINK-4279,1 53018U 22076AJ  22234.50001157 -.00072713  00000-0 -51705-3 0  9999,2 53018  53.2158 152.1679 0001759  35.2043 286.1267 15.73247854  1305,6727.759,91.53,350.807,348.44,0.0
53018.0,STARLINK-4279,PAYLOAD,2022-08-22 22:00:00,15.73228593,0.0001738,53.2157,150.1064,33.9565,128.5587,1.5552999999999998e-05,1.565e-05,0.0,0 STARLINK-4279,1 53018U 22076AJ  22234.91667824  .00001565  00000-0  15553-4 0  9990,2 53018  53.2157 150.1064 0001738  33.9565 128.5587 15.73228593  7793,6727.814,91.532,350.848,348.509,0.0
53018.0,STARLINK-4279,PAYLOAD,2022-08-23 14:00:01,15.73165569,0.000151,53.2153,146.8066,28.5477,311.865,0.00050785,0.00071154,0.0,0 STARLINK-4279,1 53018U 22076AJ  22235.58334491  .00071154  00000-0  50785-3 0  9991,2 53018  53.2153 146.8066 0001510  28.5477 311.8650 15.73165569  1305,6727.993,91.535,350.874,348.842,0.0
53018.0,STARLINK-4279,PAYLOAD,2022-08-23 22:00:01,15.73231256,0.0001595999999999,53.2157,145.1581,29.1105,40.2805,-1.8617e-05,-3.236e-05,0.0,0 STARLINK-4279,1 53018U 22076AJ  22235.91668981 -.00003236  00000-0 -18617-4 0  9999,2 53018  53.2157 145.1581 0001596  29.1105  40.2805 15.73231256  1304,6727.806,91.531,350.745,348.597,0.0
53018.0,STARLINK-4279,PAYLOAD,2022-08-24 06:00:00,15.73216991,0.0001793,53.2157,143.5098,26.0824,132.185,0.00031675,0.00044101,0.0,0 STARLINK-4279,1 53018U 22076AJ  22236.25001157  .00044101  00000-0  31675-3 0  9995,2 53018  53.2157 143.5098 0001793  26.0824 132.1850 15.73216991  8006,6727.847,91.532,350.918,348.505,0.0
53018.0,STARLINK-4279,PAYLOAD,2022-08-24 14:00:01,15.73250137,0.0001575999999999,53.2162,141.8546,29.7976,217.4494,-3.9725e-05,-6.204e-05,0.0,0 STARLINK-4279,1 53018U 22076AJ  22236.58334491 -.00006204  00000-0 -39725-4 0  9990,2 53018  53.2162 141.8546 0001576  29.7976 217.4494 15.73250137  1305,6727.752,91.53,350.67800000000005,348.557,0.0
53018.0,STARLINK-4279,PAYLOAD,2022-08-24 22:00:00,15.73225064,0.0001828,53.216,140.2098,35.3724,300.8613,-0.00012588,-0.00018269,0.0,0 STARLINK-4279,1 53018U 22076AJ  22236.91667824 -.00018269  00000-0 -12588-3 0  9997,2 53018  53.2160 140.2098 0001828  35.3724 300.8613 15.73225064  8119,6727.824000000001,91.532,350.9190000000001,348.459,0.0
53018.0,STARLINK-4279,PAYLOAD,2022-08-25 14:00:01,15.73166347,0.0001513,53.2154,136.9097,31.3758,122.7799,0.00041948,0.00058578,0.0,0 STARLINK-4279,1 53018U 22076AJ  22237.58334491  .00058578  00000-0  41948-3 0  9999,2 53018  53.2154 136.9097 0001513  31.3758 122.7799 15.73166347  1305,6727.991,91.535,350.874,348.838,0.0
53018.0,STARLINK-4279,PAYLOAD,2022-08-25 22:00:00,15.73215426,0.0001653,53.2157,135.2616,31.1096,211.9573,3.5519e-05,4.370000000000001e-05,0.0,0 STARLINK-4279,1 53018U 22076AJ  22237.91667824  .00004370  00000-0  35519-4 0  9994,2 53018  53.2157 135.2616 0001653  31.1096 211.9573 15.73215426  1309,6727.851,91.532,350.82800000000015,348.60400000000016,0.0
53018.0,STARLINK-4279,PAYLOAD,2022-08-26 06:00:00,15.73212444,0.0001788,53.2157,133.6129,26.7079,305.2270000000001,0.00022942,0.00031717,0.0,0 STARLINK-4279,1 53018U 22076AJ  22238.25001157  .00031717  00000-0  22942-3 0  9993,2 53018  53.2157 133.6129 0001788  26.7079 305.2270 15.73212444  8327,6727.86,91.532,350.92800000000005,348.522,0.0
53018.0,STARLINK-4279,PAYLOAD,2022-08-26 14:00:01,15.73232179,0.0001661,53.2159,131.9612,35.1883,25.7765,-0.00025603,-0.00036448,0.0,0 STARLINK-4279,1 53018U 22076AJ  22238.58335648 -.00036448  00000-0 -25603-3 0  9999,2 53018  53.2159 131.9612 0001661  35.1883  25.7765 15.73232179  1305,6727.803000000001,91.531,350.786,348.551,0.0
53018.0,STARLINK-4279,PAYLOAD,2022-08-26 20:00:01,15.73214004,0.0001818,53.216,130.7251,39.3403,358.2758,-0.00019073,-0.00027319,0.0,0 STARLINK-4279,1 53018U 22076AJ  22238.83334491 -.00027319  00000-0 -19073-3 0  9993,2 53018  53.2160 130.7251 0001818  39.3403 358.2758 15.73214004  8413,6727.855,91.532,350.9430000000001,348.497,0.0
53018.0,STARLINK-4279,PAYLOAD,2022-08-26 22:00:00,15.73199876,0.0001916,53.2159,130.3134,37.4876,112.3666,-2.7061e-05,-4.417e-05,0.0,0 STARLINK-4279,1 53018U 22076AJ  22238.91667824 -.00004417  00000-0 -27061-4 0  9992,2 53018  53.2159 130.3134 0001916  37.4876 112.3666 15.73199876  1306,6727.896,91.533,351.05,348.471,0.0
